SKYSAT-C4               
1 41771U 16058B   26196.04533669  .00010582  00000+0  19415-3 0  9998
2 41771  96.9160 216.6654 0003463 118.3684 241.7918 15.49433812549785
SKYSAT-C5               
1 41772U 16058C   26196.08079694  .00004197  00000+0  13099-3 0  9993
2 41772  97.0454 235.4703 0002531 160.8664 199.2675 15.33718331548021
SKYSAT-C2               
1 41773U 16058D   26196.02683221  .00007118  00000+0  16515-3 0  9997
2 41773  97.0156 217.0836 0001519 354.7019   5.4213 15.42678065549348
SKYSAT-C3               
1 41774U 16058E   26196.04101934  .00014739  00000+0  23177-3 0  9995
2 41774  96.8991 225.8356 0002516 132.0460 228.1009 15.53702651550432
ALSAT-1B                
1 41785U 16059C   26196.17294134 -.00000079  00000+0 -50905-5 0  9992
2 41785  97.7749 203.7290 0010304 129.8747 230.3369 14.72293333524698
PATHFINDER 1            
1 41787U 16059E   26195.95240120  .00000278  00000+0  56631-4 0  9995
2 41787  97.8177 193.9768 0029801 116.4385 243.9883 14.67693013523781
SCATSAT 1               
1 41790U 16059H   26196.14408262  .00000664  00000+0  93820-4 0  9994
2 41790  98.1178 260.1971 0055208 156.7170 203.6560 14.79587238105721
GOKTURK 1A              
1 41875U 16073A   26196.15438090  .00000515  00000+0  11007-3 0  9998
2 41875  98.1221  90.3867 0001417  79.9716 280.1645 14.62794262512912
RESOURCESAT-2A          
1 41877U 16074A   26196.15337914 -.00000222  00000+0 -80972-4 0  9999
2 41877  98.7528 269.4277 0002392  29.1640 330.9670 14.21607962498279
CARTOSAT-2D             
1 41948U 17008A   26196.15053494  .00002977  00000+0  14428-3 0  9993
2 41948  97.4098 254.9315 0006022 138.7095 221.4596 15.19286662521820
SENTINEL-2B             
1 42063U 17013A   26196.17953597  .00000042  00000+0  32532-4 0  9991
2 42063  98.5692 270.5576 0001197  91.0425 269.0895 14.30815121488642
CARTOSAT-2E             
1 42767U 17036C   26196.16830221  .00003084  00000+0  14952-3 0  9998
2 42767  97.4265 255.5073 0003251 189.5396 170.5777 15.19256188502399
FORMOSAT-5              
1 42920U 17049A   26196.18982433  .00000043  00000+0  21928-4 0  9992
2 42920  98.2246 270.8764 0011341   3.8512 356.2768 14.50907828470735
SENTINEL-5P             
1 42969U 17064A   26195.83234929 -.00000002  00000+0  20025-4 0  9996
2 42969  98.7929 137.7679 0001129  93.1727 266.9578 14.19523253453480
SKYSAT-C11              
1 42987U 17068A   26195.98506909  .00017721  00000+0  22641-3 0  9996
2 42987  97.4376 346.0599 0001121 159.0232 201.1070 15.59315544487575
SKYSAT-C10              
1 42988U 17068B   26195.93458874  .00006084  00000+0  18097-3 0  9999
2 42988  97.4538 333.0656 0001434 108.1466 251.9934 15.35113231486616
SKYSAT-C9               
1 42989U 17068C   26195.88519891  .00007445  00000+0  17532-3 0  9996
2 42989  97.4457 334.2191 0008692  45.8055 314.3904 15.42209004487027
SKYSAT-C8               
1 42990U 17068D   26195.92836706  .00005990  00000+0  16522-3 0  9991
2 42990  97.4553 332.9660 0001230 103.7859 256.3522 15.37487916486573
SKYSAT-C7               
1 42991U 17068E   26195.92284226  .00005868  00000+0  16211-3 0  9995
2 42991  97.4566 333.9519 0005758  22.1951 337.9541 15.37438463486635
SKYSAT-C6               
1 42992U 17068F   26195.93212557  .00005163  00000+0  15855-3 0  9996
2 42992  97.4603 333.8162 0005128  90.1759 270.0071 15.34166717486578
CARTOSAT-2F             
1 43111U 18004A   26196.20085089  .00002437  00000+0  11884-3 0  9999
2 43111  97.4776 255.5599 0002775 135.4284 224.7174 15.19271029471589
GAOFEN-1 02             
1 43259U 18031A   26196.22011492  .00000657  00000+0  10175-3 0  9995
2 43259  98.0520 258.6667 0001496 286.3324  73.7721 14.76473268446837
GAOFEN-1 03             
1 43260U 18031B   26196.19821410  .00000340  00000+0  56340-4 0  9996
2 43260  98.0503 258.5002 0002407  15.6525 344.4759 14.76462537446826
GAOFEN-1 04             
1 43262U 18031D   26196.17391682 -.00000041  00000+0  15286-5 0  9993
2 43262  98.0521 258.6703 0001279  55.7166 304.4164 14.76470180446817
SENTINEL-3B             
1 43437U 18039A   26196.17151757  .00000038  00000+0  33813-4 0  9992
2 43437  98.6236 263.3004 0001135 119.7364 240.3929 14.26736282428112
GAOFEN-5 01             
1 43461U 18043A   26195.94313336  .00000124  00000+0  35675-4 0  9995
2 43461  98.4590 168.1154 0002102  32.5037 327.6292 14.60623160435749
GAOFEN-6                
1 43484U 18048A   26196.19646872  .00000138  00000+0  27387-4 0  9993
2 43484  98.0964 258.8982 0012099  81.7179 278.5402 14.76382792437525
GAOFEN-11 01            
1 43585U 18063A   26196.21808432  .00006482  00000+0  94413-4 0  9999
2 43585  97.1279 263.0306 0003147 199.2833 160.8304 15.56065082444701
ICESAT-2                
1 43613U 18070A   26196.18020900  .00005213  00000+0  18980-3 0  9996
2 43613  92.0097 298.5436 0005695  59.1010 301.0799 15.28177285436732
HYSIS                   
1 43719U 18096A   26196.15938068  .00001015  00000+0  14557-3 0  9993
2 43719  97.9835 262.6861 0001828  84.7663 275.3756 14.78672049411550
KAZSTSAT                
1 43783U 18099AB  26196.04993677  .00000476  00000+0  42847-4 0  9996
2 43783  97.4318 226.7225 0007370 341.6349  18.4608 14.99955337415486
